[
  {
    "id": "brussel-aartsengelen",
    "naam": "Kathedraal van de Heilige Aartsengelen",
    "gemeente": "Brussel",
    "provincie": "Brussels Hoofdstedelijk Gewest",
    "postcode": "1000"
  },
  {
    "id": "schaarbeek-marina",
    "naam": "Parochie van de Heilige Marina",
    "gemeente": "Schaarbeek",
    "provincie": "Brussels Hoofdstedelijk Gewest",
    "postcode": "1030"
  },
  {
    "id": "schaarbeek-nikolaas",
    "naam": "Parochie van de Heilige Nikolaas",
    "gemeente": "Schaarbeek",
    "provincie": "Brussels Hoofdstedelijk Gewest",
    "postcode": "1030"
  },
  {
    "id": "schaarbeek-ignatios",
    "naam": "Parochie van de Heilige Ignatios de Theofoor",
    "gemeente": "Schaarbeek",
    "provincie": "Brussels Hoofdstedelijk Gewest",
    "postcode": "1030"
  },
  {
    "id": "elsene-michael-gabriel",
    "naam": "Parochie van de Heilige Aartsengelen Michael en Gabriël",
    "gemeente": "Elsene",
    "provincie": "Brussels Hoofdstedelijk Gewest",
    "postcode": "1050"
  },
  {
    "id": "sintgillis-silouan-martinus",
    "naam": "Parochie van de Heiligen Silouan de Athoniet en Martinus van Tours",
    "gemeente": "Sint-Gillis",
    "provincie": "Brussels Hoofdstedelijk Gewest",
    "postcode": "1060"
  },
  {
    "id": "anderlecht-geboorte-moeder-gods",
    "naam": "Parochie van de Geboorte van de Moeder Gods",
    "gemeente": "Anderlecht",
    "provincie": "Brussels Hoofdstedelijk Gewest",
    "postcode": "1070"
  },
  {
    "id": "molenbeek-johannes-doper",
    "naam": "Parochie van de Heilige Johannes de Doper",
    "gemeente": "Molenbeek",
    "provincie": "Brussels Hoofdstedelijk Gewest",
    "postcode": "1080"
  },
  {
    "id": "lasne-irene-paisios",
    "naam": "Parochie van de Heilige Grootemartelaren Irene en de Heilige Païsios de Athoniet",
    "gemeente": "Lasne",
    "provincie": "Waals-Brabant",
    "postcode": "1380"
  },
  {
    "id": "dilbeek-georgios-alena",
    "naam": "Parochie van de Heiligen Georgios en Alena van Dilbeek",
    "gemeente": "Dilbeek",
    "provincie": "Vlaams-Brabant",
    "postcode": "1700"
  },
  {
    "id": "antwerpen-boodschap",
    "naam": "Parochie van de Boodschap aan de Moeder Gods",
    "gemeente": "Antwerpen",
    "provincie": "Antwerpen",
    "postcode": "2000"
  },
  {
    "id": "ekeren-laurentius",
    "naam": "Parochie van de Heilige Laurentius",
    "gemeente": "Ekeren",
    "provincie": "Antwerpen",
    "postcode": "2180"
  },
  {
    "id": "berchem-sophrony",
    "naam": "Parochie van de Heilige Sophrony de Athoniet",
    "gemeente": "Berchem",
    "provincie": "Antwerpen",
    "postcode": "2600"
  },
  {
    "id": "hasselt-drie-hierarchen",
    "naam": "Parochie van de Drie Hiërarchen",
    "gemeente": "Hasselt",
    "provincie": "Limburg",
    "postcode": "3500"
  },
  {
    "id": "houthalen-ontslaping",
    "naam": "Parochie van de Ontslaping van de Moeder Gods en van de Heilige Rafail, Nikolaos en Irini",
    "gemeente": "Houthalen",
    "provincie": "Limburg",
    "postcode": "3530"
  },
  {
    "id": "beringen-nektarios",
    "naam": "Parochie van de Heilige Nektarios",
    "gemeente": "Beringen",
    "provincie": "Limburg",
    "postcode": "3580"
  },
  {
    "id": "maasmechelen-dimitrios",
    "naam": "Parochie van de Heilige Dimitrios",
    "gemeente": "Maasmechelen",
    "provincie": "Limburg",
    "postcode": "3630"
  },
  {
    "id": "genk-barbara",
    "naam": "Parochie van de Heilige Barbara",
    "gemeente": "Genk",
    "provincie": "Limburg",
    "postcode": "3600"
  },
  {
    "id": "luik-barbara",
    "naam": "Parochie van de Heilige Barbara",
    "gemeente": "Luik",
    "provincie": "Luik",
    "postcode": "4000"
  },
  {
    "id": "eupen-nina",
    "naam": "Parochie van de Heilige Apostelgelijke Nina",
    "gemeente": "Eupen",
    "provincie": "Luik",
    "postcode": "4700"
  },
  {
    "id": "verviers-tempelgang",
    "naam": "Parochie van de Tempelgang van Christus",
    "gemeente": "Verviers",
    "provincie": "Luik",
    "postcode": "4800"
  },
  {
    "id": "namen-rafail-nikolaos-irini",
    "naam": "Parochie van de Heilige Rafail, Nikolaos en Irini",
    "gemeente": "Namen",
    "provincie": "Namen",
    "postcode": "5000"
  },
  {
    "id": "charleroi-barbara",
    "naam": "Parochie van de Heilige Barbara",
    "gemeente": "Charleroi",
    "provincie": "Henegouwen",
    "postcode": "6000"
  },
  {
    "id": "bergen-nektarios",
    "naam": "Parochie van de Heilige Nektarios",
    "gemeente": "Bergen",
    "provincie": "Henegouwen",
    "postcode": "7000"
  },
  {
    "id": "boussoit-bescherming-lucas",
    "naam": "Parochie van de Bescherming van de Moeder Gods en Heilige Lucas van Simferopel",
    "gemeente": "Boussoit",
    "provincie": "Henegouwen",
    "postcode": "7110"
  },
  {
    "id": "peronnes-anargyren",
    "naam": "Parochie van de Heilige Anargyren",
    "gemeente": "Péronnes-lez-Binche",
    "provincie": "Henegouwen",
    "postcode": "7134"
  },
  {
    "id": "doornik-fokas",
    "naam": "Parochie van de Heilige Fokas",
    "gemeente": "Doornik",
    "provincie": "Henegouwen",
    "postcode": "7500"
  },
  {
    "id": "brugge-konstantijn-helena",
    "naam": "Parochie van de Heilige Konstantijn en Helena",
    "gemeente": "Brugge",
    "provincie": "West-Vlaanderen",
    "postcode": "8000"
  },
  {
    "id": "oostende-kyrillos-methodios",
    "naam": "Parochie van de Heilige Kyrillos en Methodios",
    "gemeente": "Oostende",
    "provincie": "West-Vlaanderen",
    "postcode": "8400"
  },
  {
    "id": "kortrijk-amandus",
    "naam": "Parochie van de Heilige Amandus",
    "gemeente": "Kortrijk",
    "provincie": "West-Vlaanderen",
    "postcode": "8500"
  },
  {
    "id": "gent-andreas",
    "naam": "Parochie van de Heilige Apostel Andreas",
    "gemeente": "Gent",
    "provincie": "Oost-Vlaanderen",
    "postcode": "9000"
  }
]
